SHIJIAN-17 (SJ-17)      
1 41838U 16065A   26171.45724087  .00000087  00000+0  00000+0 0  9999
2 41838   5.7621  72.5678 0001949  27.4113 204.1763  0.99855834 35230
GOES 16                 
1 41866U 16071A   26175.19682215 -.00000084  00000+0  00000+0 0  9996
2 41866   0.3596  85.5430 0000482 358.6578 154.3108  1.00271929 35170
TIANLIAN 1-04           
1 41869U 16072A   26175.20546162  .00000038  00000+0  00000+0 0  9990
2 41869   0.8858  82.9424 0043256  90.2345 349.9372  1.00272983 35378
WGS F8 (USA 272)        
1 41879U 16075A   26175.22128028 -.00000195  00000+0  00000+0 0  9998
2 41879   0.0140  88.5865 0000028 225.2299 188.0415  1.00271095 34893
FENGYUN 4A              
1 41882U 16077A   26174.71183522 -.00000352  00000+0  00000+0 0  9992
2 41882   2.3403  80.2217 0008368 152.9998  58.5685  1.00265670 34994
ECHOSTAR 19             
1 41893U 16079A   26175.01364089 -.00000132  00000+0  00000+0 0  9995
2 41893   0.0189  18.2068 0001422  72.4413  89.3327  1.00272559 34774
JCSAT-110A (JCSAT-15)   
1 41903U 16082A   26175.20114447 -.00000344  00000+0  00000+0 0  9998
2 41903   0.0188   4.9184 0000766  96.7190 353.1972  1.00272361 34833
STAR ONE D1             
1 41904U 16082B   26175.15384231 -.00000204  00000+0  00000+0 0  9998
2 41904   0.0166  41.6388 0002286  65.6975 136.3579  1.00272475 34840
TJS-2                   
1 41911U 17001A   26175.11233286  .00000000  00000+0  00000+0 0  9990
2 41911   0.8518  85.2534 0000631  45.0016 248.9871  1.00271629 34782
SBIRS GEO-4 (USA 273)   
1 41937U 17004A   26175.17459998  .00000129  00000+0  00000+0 0  9999
2 41937   2.2567  43.4804 0002275  40.8824 271.7166  1.00272436 34667
HISPASAT 36W-1          
1 41942U 17006A   26175.16333325 -.00000237  00000+0  00000+0 0  9992
2 41942   0.0145 295.8203 0000903 156.0096 203.2945  1.00272342 34317
TELKOM 3S               
1 41944U 17007A   26175.19558366  .00000000  00000+0  00000+0 0  9999
2 41944   0.0229  26.1326 0002602  73.9558   0.6765  1.00267799 34219
INTELSAT 32E (IS-32E)   
1 41945U 17007B   26175.16185992 -.00000262  00000+0  00000+0 0  9999
2 41945   0.0176 349.3790 0000602 358.7841 299.2401  1.00269976 34293
ECHOSTAR 23             
1 42070U 17014A   26175.19477375  .00000000  00000+0  00000+0 0  9998
2 42070   0.0252  12.8786 0002173  78.6615 141.0289  1.00270099 33999
WGS F9 (USA 275)        
1 42075U 17016A   26175.16809994 -.00000089  00000+0  00000+0 0  9996
2 42075   0.0193 338.8251 0000282  77.4110 264.5939  1.00272031 33960
SES-10                  
1 42432U 17017A   26175.12657262 -.00000265  00000+0  00000+0 0  9995
2 42432   0.0218  41.8473 0002915  54.1049 154.9947  1.00269700 33825
CHINASAT 16 (SJ-13)     
1 42662U 17018A   26175.47740242 -.00000344  00000+0  00000+0 0  9998
2 42662   0.0980  89.8819 0004089 126.4029 338.7302  1.00269044 33825
KOREASAT 7              
1 42691U 17023A   26175.19558366 -.00000354  00000+0  00000+0 0  9990
2 42691   0.0179   2.7801 0000563  61.9848  33.9064  1.00271492 33444
SGDC                    
1 42692U 17023B   26174.45349215 -.00000244  00000+0  00000+0 0  9998
2 42692   0.0147  46.5207 0002728  50.8121 262.6912  1.00272511 33471
GSAT-9                  
1 42695U 17024A   26175.13532341 -.00000278  00000+0  00000+0 0  9999
2 42695   0.0293  83.4380 0002463   6.0146 328.7950  1.00266413 33362
INMARSAT 5-F4           
1 42698U 17025A   26174.98377984  .00000082  00000+0  00000+0 0  9997
2 42698   0.0032  91.0109 0000398 309.4233 282.3621  1.00270664 33343
SES-15                  
1 42709U 17026A   26175.21616350  .00000068  00000+0  00000+0 0  9995
2 42709   0.0192 334.4613 0000615  97.6725 148.8943  1.00268468  7502
QZS-2 (MICHIBIKI-2)     
1 42738U 17028A   26174.49055875 -.00000168  00000+0  00000+0 0  9999
2 42738  39.4179 243.0621 0759390 269.3295  77.7964  1.00282240  7686
VIASAT-2                
1 42740U 17029A   26175.22767060 -.00000258  00000+0  00000+0 0  9991
2 42740   0.0153 301.1892 0000353 112.3888 230.8800  1.00272341 33270
EUTELSAT 172B           
1 42741U 17029B   26175.19350361  .00000002  00000+0  00000+0 0  9996
2 42741   0.0411 154.1233 0000199 255.3148 104.5782  1.00271177 33810
GSAT-19                 
1 42747U 17031A   26175.22891794  .00000133  00000+0  00000+0 0  9994
2 42747   0.0177 280.8156 0007115 154.1181 327.7108  1.00270932 33217
ECHOSTAR 21             
1 42749U 17032A   26175.17243330  .00000072  00000+0  00000+0 0  9990
2 42749   1.7703 356.1927 0002559  84.3767 264.0879  1.00272738 33164
BULGARIASAT-1           
1 42801U 17038A   26175.17078663  .00000019  00000+0  00000+0 0  9991
2 42801   0.0264  73.5165 0003644  25.8217 236.3643  1.00275251 32913
HELLAS-SAT 3            
1 42814U 17040A   26175.17815333  .00000159  00000+0  00000+0 0  9996
2 42814   0.0372  29.3801 0004852  29.5138 316.5983  1.00275615 32875
GSAT-17                 
1 42815U 17040B   26175.11770622 -.00000251  00000+0  00000+0 0  9996
2 42815   0.0241  82.8390 0001565 213.5313 111.7680  1.00273387 32857
INTELSAT 35E (IS-35E)   
1 42818U 17041A   26175.16359326 -.00000231  00000+0  00000+0 0  9997
2 42818   0.0150 338.3280 0002295 114.0612 204.3337  1.00272023 32881
COSMOS 2520             
1 42907U 17046A   26173.53967391  .00000139  00000+0  00000+0 0  9993
2 42907   0.0442  96.2036 0000779  74.8601 338.9459  1.00273541 32457
