OBJECT_NAME,OBJECT_ID,EPOCH,MEAN_MOTION,ECCENTRICITY,INCLINATION,RA_OF_ASC_NODE,ARG_OF_PERICENTER,MEAN_ANOMALY,EPHEMERIS_TYPE,CLASSIFICATION_TYPE,NORAD_CAT_ID,ELEMENT_SET_NO,REV_AT_EPOCH,BSTAR,MEAN_MOTION_DOT,MEAN_MOTION_DDOT
SHIJIAN-17 (SJ-17),2016-065A,2026-06-20T10:58:25.611168,0.99855834,.0001949,5.7621,72.5678,27.4113,204.1763,0,U,41838,999,3523,0,.87E-6,0
GOES 16,2016-071A,2026-06-24T04:43:25.433760,1.00271929,.00004829,0.3596,85.5430,358.6578,154.3108,0,U,41866,999,3517,0,-.84E-6,0
TIANLIAN 1-04,2016-072A,2026-06-24T04:55:51.883968,1.00272983,.0043256,0.8858,82.9424,90.2345,349.9372,0,U,41869,999,3537,0,.38E-6,0
WGS F8 (USA 272),2016-075A,2026-06-24T05:18:38.616192,1.00271095,.00000283,0.0140,88.5865,225.2299,188.0415,0,U,41879,999,3489,0,-.195E-5,0
FENGYUN 4A,2016-077A,2026-06-23T17:05:02.563008,1.00265670,.00083687,2.3403,80.2217,152.9998,58.5685,0,U,41882,999,3499,0,-.352E-5,0
ECHOSTAR 19,2016-079A,2026-06-24T00:19:38.572896,1.00272559,.0001422,0.0189,18.2068,72.4413,89.3327,0,U,41893,999,3477,0,-.132E-5,0
JCSAT-110A (JCSAT-15),2016-082A,2026-06-24T04:49:38.882208,1.00272361,.00007664,0.0188,4.9184,96.7190,353.1972,0,U,41903,999,3483,0,-.344E-5,0
STAR ONE D1,2016-082B,2026-06-24T03:41:31.975584,1.00272475,.00022861,0.0166,41.6388,65.6975,136.3579,0,U,41904,999,3484,0,-.204E-5,0
TJS-2,2017-001A,2026-06-24T02:41:45.559104,1.00271629,.00006316,0.8518,85.2534,45.0016,248.9871,0,U,41911,999,3478,0,0,0
SBIRS GEO-4 (USA 273),2017-004A,2026-06-24T04:11:25.438272,1.00272436,.00022755,2.2567,43.4804,40.8824,271.7166,0,U,41937,999,3466,0,.129E-5,0
HISPASAT 36W-1,2017-006A,2026-06-24T03:55:11.992800,1.00272342,.00009031,0.0145,295.8203,156.0096,203.2945,0,U,41942,999,3431,0,-.237E-5,0
TELKOM 3S,2017-007A,2026-06-24T04:41:38.428224,1.00267799,.0002602,0.0229,26.1326,73.9558,0.6765,0,U,41944,999,3421,0,0,0
INTELSAT 32E (IS-32E),2017-007B,2026-06-24T03:53:04.697088,1.00269976,.00006028,0.0176,349.3790,358.7841,299.2401,0,U,41945,999,3429,0,-.262E-5,0
ECHOSTAR 23,2017-014A,2026-06-24T04:40:28.452000,1.00270099,.00021732,0.0252,12.8786,78.6615,141.0289,0,U,42070,999,3399,0,0,0
WGS F9 (USA 275),2017-016A,2026-06-24T04:02:03.834816,1.00272031,.00002822,0.0193,338.8251,77.4110,264.5939,0,U,42075,999,3396,0,-.89E-6,0
SES-10,2017-017A,2026-06-24T03:02:15.874368,1.00269700,.00029151,0.0218,41.8473,54.1049,154.9947,0,U,42432,999,3382,0,-.265E-5,0
CHINASAT 16 (SJ-13),2017-018A,2026-06-24T11:27:27.569088,1.00269044,.0004089,0.0980,89.8819,126.4029,338.7302,0,U,42662,999,3382,0,-.344E-5,0
KOREASAT 7,2017-023A,2026-06-24T04:41:38.428224,1.00271492,.00005631,0.0179,2.7801,61.9848,33.9064,0,U,42691,999,3344,0,-.354E-5,0
SGDC,2017-023B,2026-06-23T10:53:01.721760,1.00272511,.00027287,0.0147,46.5207,50.8121,262.6912,0,U,42692,999,3347,0,-.244E-5,0
GSAT-9,2017-024A,2026-06-24T03:14:51.942624,1.00266413,.00024638,0.0293,83.4380,6.0146,328.7950,0,U,42695,999,3336,0,-.278E-5,0
INMARSAT 5-F4,2017-025A,2026-06-23T23:36:38.578176,1.00270664,.00003987,0.0032,91.0109,309.4233,282.3621,0,U,42698,999,3334,0,.82E-6,0
SES-15,2017-026A,2026-06-24T05:11:16.526400,1.00268468,.00006159,0.0192,334.4613,97.6725,148.8943,0,U,42709,999,750,0,.68E-6,0
QZS-2 (MICHIBIKI-2),2017-028A,2026-06-23T11:46:24.276000,1.00282240,.07593906,39.4179,243.0621,269.3295,77.7964,0,U,42738,999,768,0,-.168E-5,0
VIASAT-2,2017-029A,2026-06-24T05:27:50.739840,1.00272341,.00003535,0.0153,301.1892,112.3888,230.8800,0,U,42740,999,3327,0,-.258E-5,0
EUTELSAT 172B,2017-029B,2026-06-24T04:38:38.711904,1.00271177,.0000199,0.0411,154.1233,255.3148,104.5782,0,U,42741,999,3381,0,.2E-7,0
GSAT-19,2017-031A,2026-06-24T05:29:38.510016,1.00270932,.00071157,0.0177,280.8156,154.1181,327.7108,0,U,42747,999,3321,0,.133E-5,0
ECHOSTAR 21,2017-032A,2026-06-24T04:08:18.237120,1.00272738,.00025595,1.7703,356.1927,84.3767,264.0879,0,U,42749,999,3316,0,.72E-6,0
BULGARIASAT-1,2017-038A,2026-06-24T04:05:55.964832,1.00275251,.00036449,0.0264,73.5165,25.8217,236.3643,0,U,42801,999,3291,0,.19E-6,0
HELLAS-SAT 3,2017-040A,2026-06-24T04:16:32.447712,1.00275615,.00048522,0.0372,29.3801,29.5138,316.5983,0,U,42814,999,3287,0,.159E-5,0
GSAT-17,2017-040B,2026-06-24T02:49:29.817408,1.00273387,.00015651,0.0241,82.8390,213.5313,111.7680,0,U,42815,999,3285,0,-.251E-5,0
INTELSAT 35E (IS-35E),2017-041A,2026-06-24T03:55:34.457664,1.00272023,.0002295,0.0150,338.3280,114.0612,204.3337,0,U,42818,999,3288,0,-.231E-5,0
COSMOS 2520,2017-046A,2026-06-22T12:57:07.825824,1.00273541,.00007796,0.0442,96.2036,74.8601,338.9459,0,U,42907,999,3245,0,.139E-5,0
